OBJECT_NAME,OBJECT_ID,EPOCH,MEAN_MOTION,ECCENTRICITY,INCLINATION,RA_OF_ASC_NODE,ARG_OF_PERICENTER,MEAN_ANOMALY,EPHEMERIS_TYPE,CLASSIFICATION_TYPE,NORAD_CAT_ID,ELEMENT_SET_NO,REV_AT_EPOCH,BSTAR,MEAN_MOTION_DOT,MEAN_MOTION_DDOT
STARLINK-1646,2020-062AC,2022-05-17T04:59:10.961664,15.06394880,.000196,53.0539,127.6990,51.7877,308.3288,0,U,46351,999,9489,-.39615E-4,-.872E-5,0
STARLINK-1653,2020-062AD,2022-05-17T04:32:38.915520,15.06388856,.0001677,53.0548,127.7890,57.7451,302.3701,0,U,46352,999,9489,.13211E-3,.1686E-4,0
STARLINK-1656,2020-062AE,2022-05-17T04:29:59.721792,15.06393428,.0001988,53.0553,147.8171,45.9891,314.1261,0,U,46353,999,9460,.39464E-4,.306E-5,0
STARLINK-1657,2020-062AF,2022-05-16T12:18:40.156992,15.06398824,.0001983,53.0542,150.8198,51.3818,308.7349,0,U,46354,999,9432,.67111E-4,.718E-5,0
STARLINK-1661,2020-062AG,2022-05-17T05:12:27.228384,15.06388746,.0001906,53.0546,147.6747,59.0511,301.0665,0,U,46355,999,9461,-.40592E-5,-.342E-5,0
STARLINK-1665,2020-062AH,2022-05-16T18:19:35.241312,15.06404189,.0001902,53.0535,149.6967,51.8699,308.2461,0,U,46356,999,9436,.85758E-4,.996E-5,0
STARLINK-1666,2020-062AJ,2022-05-17T05:25:43.639392,15.06389154,.0002126,53.0532,127.6238,43.3222,316.7933,0,U,46357,999,9489,.28293E-3,.3934E-4,0
STARLINK-1690,2020-062AK,2022-05-17T04:56:31.636608,15.06400669,.0002153,53.0535,147.7051,37.3322,322.7817,0,U,46358,999,9461,.47226E-4,.422E-5,0
STARLINK-1707,2020-062AL,2022-05-17T04:28:00.106176,15.06389572,.0002704,53.0555,102.8176,49.5091,310.6134,0,U,46359,999,9523,.35996E-4,.254E-5,0
STARLINK-1713,2020-062AM,2022-05-16T14:39:59.526432,15.06392768,.0002301,53.0549,105.3975,50.6444,309.4749,0,U,46360,999,9497,.3166E-4,.19E-5,0
STARLINK-1722,2020-062AN,2022-05-16T15:33:03.536640,15.06393960,.0001903,53.0527,105.2294,62.1238,297.9944,0,U,46361,999,9497,-.46776E-4,-.978E-5,0
STARLINK-1726,2020-062AP,2022-05-16T21:23:20.901696,15.06441989,.000288,53.0564,104.1358,52.7664,307.3588,0,U,46362,999,9501,-.43895E-3,-.6822E-4,0
STARLINK-1739,2020-062AQ,2022-05-16T14:50:35.929824,15.06398675,.0002227,53.0547,105.3463,47.2961,312.8215,0,U,46363,999,9497,.5648E-4,.56E-5,0
STARLINK-1763,2020-062AR,2022-05-17T02:41:42.472896,15.04002851,.0001841,53.0532,83.2350,143.7003,216.4110,0,U,46364,999,9550,-.81675E-3,-.11664E-3,0
STARLINK-1550,2020-062AS,2022-05-17T04:38:37.069440,15.06383753,.0002265,53.0550,102.7699,51.5438,308.5754,0,U,46365,999,9521,.15466E-4,-.52E-6,0
STARLINK-1651,2020-062AT,2022-05-16T22:00:31.212288,15.06400897,.0001899,53.0560,104.0153,59.5463,300.5714,0,U,46366,999,9501,.12425E-3,.157E-4,0
STARLINK-1658,2020-062AV,2022-05-17T04:22:01.353504,15.06397882,.0002239,53.0536,127.8244,54.0308,306.0888,0,U,46368,999,9489,.67443E-4,.723E-5,0
STARLINK-1670,2020-062AX,2022-05-16T16:20:10.516128,15.06392882,.0002576,53.0529,130.0890,40.3024,319.8155,0,U,46370,999,9463,.46186E-4,.406E-5,0
STARLINK-1688,2020-062AY,2022-05-16T16:09:33.403392,15.06391968,.0001942,53.0552,130.0992,49.1290,310.9867,0,U,46371,999,9463,-.74177E-4,-.1386E-4,0
STARLINK-1689,2020-062AZ,2022-05-16T17:58:21.535968,15.06401893,.0002017,53.0533,149.7618,45.8240,314.2914,0,U,46372,999,9436,.95765E-4,.1145E-4,0
STARLINK-1711,2020-062BB,2022-05-16T19:53:48.302592,15.06400004,.0001334,53.0558,79.4250,74.1574,285.9562,0,U,46374,999,9535,.95287E-4,.1138E-4,0
STARLINK-1724,2020-062BC,2022-05-17T04:12:04.099680,15.06388583,.0002443,53.0540,102.8466,47.8506,312.2690,0,U,46375,999,9523,-.14113E-3,-.2383E-4,0
STARLINK-1742,2020-062BD,2022-05-17T04:33:19.489824,15.06359313,.0002311,53.0565,102.7989,57.7301,302.3911,0,U,46376,999,9523,.52624E-3,.7557E-4,0
STARLINK-1758,2020-062BH,2022-05-17T03:44:52.516896,15.06396641,.0002223,53.0551,127.9491,45.0258,315.0910,0,U,46380,999,9488,.50829E-4,.475E-5,0
STARLINK-1769,2020-062BK,2022-05-17T04:54:32.246496,15.06388428,.0001992,53.0549,102.7395,52.8949,307.2222,0,U,46382,999,9521,.13104E-4,-.87E-6,0
STARLINK-1770,2020-062BL,2022-05-16T17:26:30.894144,15.06395378,.0001788,53.0549,149.8799,53.1249,306.9904,0,U,46383,999,9435,-.35853E-4,-.816E-5,0
STARLINK-1771,2020-062BM,2022-05-16T17:31:49.513152,15.06393314,.0001533,53.0557,149.8663,58.9285,301.1854,0,U,46384,999,9435,-.57174E-4,-.1133E-4,0
STARLINK-1644,2020-070A,2022-05-16T14:20:44.585664,15.06414499,.0001185,53.0543,310.4476,90.5871,269.5253,0,U,46532,999,8953,.96747E-3,.14164E-3,0
STARLINK-1648,2020-070B,2022-05-16T20:58:49.284192,15.06401273,.0001617,53.0565,309.1976,91.3648,268.7526,0,U,46533,999,8957,.92872E-4,.1102E-4,0
STARLINK-1659,2020-070C,2022-05-17T04:29:59.123040,15.06391406,.0001459,53.0536,307.8093,67.5756,292.5387,0,U,46534,999,8964,.11602E-4,-.109E-5,0
