STARLINK-1646           
1 46351U 20062AC  22137.20776576 -.00000872  00000+0 -39615-4 0  9990
2 46351  53.0539 127.6990 0001960  51.7877 308.3288 15.06394880 94897
STARLINK-1653           
1 46352U 20062AD  22137.18933930  .00001686  00000+0  13211-3 0  9992
2 46352  53.0548 127.7890 0001677  57.7451 302.3701 15.06388856 94897
STARLINK-1656           
1 46353U 20062AE  22137.18749678  .00000306  00000+0  39464-4 0  9994
2 46353  53.0553 147.8171 0001988  45.9891 314.1261 15.06393428 94603
STARLINK-1657           
1 46354U 20062AF  22136.51296478  .00000718  00000+0  67111-4 0  9993
2 46354  53.0542 150.8198 0001983  51.3818 308.7349 15.06398824 94320
STARLINK-1661           
1 46355U 20062AG  22137.21698181 -.00000342  00000+0 -40592-5 0  9999
2 46355  53.0546 147.6747 0001906  59.0511 301.0665 15.06388746 94610
STARLINK-1665           
1 46356U 20062AH  22136.76360233  .00000996  00000+0  85758-4 0  9998
2 46356  53.0535 149.6967 0001902  51.8699 308.2461 15.06404189 94363
STARLINK-1666           
1 46357U 20062AJ  22137.22619953  .00003934  00000+0  28293-3 0  9992
2 46357  53.0532 127.6238 0002126  43.3222 316.7933 15.06389154 94895
STARLINK-1690           
1 46358U 20062AK  22137.20592172  .00000422  00000+0  47226-4 0  9991
2 46358  53.0535 147.7051 0002153  37.3322 322.7817 15.06400669 94612
STARLINK-1707           
1 46359U 20062AL  22137.18611234  .00000254  00000+0  35996-4 0  9994
2 46359  53.0555 102.8176 0002704  49.5091 310.6134 15.06389572 95231
STARLINK-1713           
1 46360U 20062AM  22136.61110563  .00000190  00000+0  31660-4 0  9995
2 46360  53.0549 105.3975 0002301  50.6444 309.4749 15.06392768 94978
STARLINK-1722           
1 46361U 20062AN  22136.64795760 -.00000978  00000+0 -46776-4 0  9997
2 46361  53.0527 105.2294 0001903  62.1238 297.9944 15.06393960 94977
STARLINK-1726           
1 46362U 20062AP  22136.89121414 -.00006822  00000+0 -43895-3 0  9996
2 46362  53.0564 104.1358 0002880  52.7664 307.3588 15.06441989 95012
STARLINK-1739           
1 46363U 20062AQ  22136.61847141  .00000560  00000+0  56480-4 0  9995
2 46363  53.0547 105.3463 0002227  47.2961 312.8215 15.06398675 94973
STARLINK-1763           
1 46364U 20062AR  22137.11229714 -.00011664  00000+0 -81675-3 0  9994
2 46364  53.0532  83.2350 0001841 143.7003 216.4110 15.04002851 95506
STARLINK-1550           
1 46365U 20062AS  22137.19348460 -.00000052  00000+0  15466-4 0  9997
2 46365  53.0550 102.7699 0002265  51.5438 308.5754 15.06383753 95219
STARLINK-1651           
1 46366U 20062AT  22136.91702792  .00001570  00000+0  12425-3 0  9995
2 46366  53.0560 104.0153 0001899  59.5463 300.5714 15.06400897 95014
STARLINK-1658           
1 46368U 20062AV  22137.18196011  .00000723  00000+0  67443-4 0  9998
2 46368  53.0536 127.8244 0002239  54.0308 306.0888 15.06397882 94897
STARLINK-1670           
1 46370U 20062AX  22136.68067727  .00000406  00000+0  46186-4 0  9995
2 46370  53.0529 130.0890 0002576  40.3024 319.8155 15.06392882 94638
STARLINK-1688           
1 46371U 20062AY  22136.67330328 -.00001386  00000+0 -74177-4 0  9996
2 46371  53.0552 130.0992 0001942  49.1290 310.9867 15.06391968 94632
STARLINK-1689           
1 46372U 20062AZ  22136.74886037  .00001145  00000+0  95765-4 0  9995
2 46372  53.0533 149.7618 0002017  45.8240 314.2914 15.06401893 94365
STARLINK-1711           
1 46374U 20062BB  22136.82903128  .00001138  00000+0  95287-4 0  9998
2 46374  53.0558  79.4250 0001334  74.1574 285.9562 15.06400004 95357
STARLINK-1724           
1 46375U 20062BC  22137.17504745 -.00002383  00000+0 -14113-3 0  9993
2 46375  53.0540 102.8466 0002443  47.8506 312.2690 15.06388583 95233
STARLINK-1742           
1 46376U 20062BD  22137.18980891  .00007557  00000+0  52624-3 0  9990
2 46376  53.0565 102.7989 0002311  57.7301 302.3911 15.06359313 95232
STARLINK-1758           
1 46380U 20062BH  22137.15616339  .00000475  00000+0  50829-4 0  9993
2 46380  53.0551 127.9491 0002223  45.0258 315.0910 15.06396641 94887
STARLINK-1769           
1 46382U 20062BK  22137.20453989 -.00000087  00000+0  13104-4 0  9996
2 46382  53.0549 102.7395 0001992  52.8949 307.2222 15.06388428 95216
STARLINK-1770           
1 46383U 20062BL  22136.72674646 -.00000816  00000+0 -35853-4 0  9994
2 46383  53.0549 149.8799 0001788  53.1249 306.9904 15.06395378 94356
STARLINK-1771           
1 46384U 20062BM  22136.73043418 -.00001133  00000+0 -57174-4 0  9996
2 46384  53.0557 149.8663 0001533  58.9285 301.1854 15.06393314 94356
STARLINK-1644           
1 46532U 20070A   22136.59773826  .00014164  00000+0  96747-3 0  9991
2 46532  53.0543 310.4476 0001185  90.5871 269.5253 15.06414499 89532
STARLINK-1648           
1 46533U 20070B   22136.87418153  .00001102  00000+0  92872-4 0  9996
2 46533  53.0565 309.1976 0001617  91.3648 268.7526 15.06401273 89572
STARLINK-1659           
1 46534U 20070C   22137.18748985 -.00000109  00000+0  11602-4 0  9990
2 46534  53.0536 307.8093 0001459  67.5756 292.5387 15.06391406 89649
